NORAD_CAT_ID,OBJECT_NAME,OBJECT_TYPE,EPOCH,MEAN_MOTION,ECCENTRICITY,INCLINATION,RA_OF_ASC_NODE,ARG_OF_PERICENTER,MEAN_ANOMALY,BSTAR,MEAN_MOTION_DOT,MEAN_MOTION_DDOT,TLE_LINE0,TLE_LINE1,TLE_LINE2,SEMIMAJOR_AXIS,PERIOD,APOGEE,PERIGEE,DECAYED
52647.0,STARLINK-3846,PAYLOAD,2022-10-03 17:01:17,15.08842531,0.0001837,53.2185,123.9614,47.2619,312.8528,4.801100000000001e-05,4.76e-06,0.0,0 STARLINK-3846,1 52647U 22052BB  22276.70923285  .00000476  00000-0  48011-4 0  9995,2 52647  53.2185 123.9614 0001837  47.2619 312.8528 15.08842531 22352,6917.873000000001,95.437,541.008,538.467,0.0
52647.0,STARLINK-3846,PAYLOAD,2022-10-03 20:12:04,15.08841485,0.0001817,53.2186,123.3662,48.4874,311.6273,4.526e-05,4.32e-06,0.0,0 STARLINK-3846,1 52647U 22052BB  22276.84171311  .00000432  00000-0  45260-4 0  9990,2 52647  53.2186 123.3662 0001817  48.4874 311.6273 15.08841485 22007,6917.876,95.437,540.998,538.484,0.0
52647.0,STARLINK-3846,PAYLOAD,2022-10-04 07:19:45,15.08848216,0.0001833,53.2183,121.2837,52.5346,307.5813,1.4929e-05,-5e-07,0.0,0 STARLINK-3846,1 52647U 22052BB  22277.30538761 -.00000050  00000-0  14929-4 0  9993,2 52647  53.2183 121.2837 0001833  52.5346 307.5813 15.08848216 22073,6917.855,95.437,540.988,538.452,0.0
52647.0,STARLINK-3846,PAYLOAD,2022-10-04 20:02:50,15.088409900000002,0.0001932,53.218,118.9045,56.262,303.8556,2.655e-05,1.34e-06,0.0,0 STARLINK-3846,1 52647U 22052BB  22277.83531057  .00000134  00000-0  26550-4 0  9997,2 52647  53.2180 118.9045 0001932  56.2620 303.8556 15.08840990 22153,6917.877,95.437,541.0790000000002,538.406,0.0
52647.0,STARLINK-3846,PAYLOAD,2022-10-04 23:13:37,15.0882199,0.0001519,53.2181,118.3102,58.4529,301.6611,8.300299999999999e-05,1.033e-05,0.0,0 STARLINK-3846,1 52647U 22052BB  22277.96779926  .00001033  00000-0  83003-4 0  9995,2 52647  53.2181 118.3102 0001519  58.4529 301.6611 15.08821990 22174,6917.935,95.439,540.851,538.75,0.0
52647.0,STARLINK-3846,PAYLOAD,2022-10-05 16:42:51,15.08838273,0.0001794,53.2183,115.0397,50.3622,309.7528,-5.639899999999999e-05,-1.186e-05,0.0,0 STARLINK-3846,1 52647U 22052BB  22278.69643470 -.00001186  00000-0 -56399-4 0  9999,2 52647  53.2183 115.0397 0001794  50.3622 309.7528 15.08838273 22657,6917.886,95.438,540.992,538.51,0.0
52647.0,STARLINK-3846,PAYLOAD,2022-10-05 19:53:38,15.0882234,0.0001841,53.2187,114.4448,32.7924,327.3182,0.00011326,1.514e-05,0.0,0 STARLINK-3846,1 52647U 22052BB  22278.82891879  .00001514  00000-0  11326-3 0  9995,2 52647  53.2187 114.4448 0001841  32.7924 327.3182 15.08822340 22305,6917.934,95.439,541.073,538.526,0.0
52647.0,STARLINK-3846,PAYLOAD,2022-10-05 23:04:24,15.08839012,0.0001704,53.219,113.8494,48.9137,311.2003,-9.5019e-05,-1.8e-05,0.0,0 STARLINK-3846,1 52647U 22052BB  22278.96139557 -.00001800  00000-0 -95019-4 0  9990,2 52647  53.2190 113.8494 0001704  48.9137 311.2003 15.08839012 22326,6917.8830000000025,95.438,540.927,538.57,0.0
52647.0,STARLINK-3846,PAYLOAD,2022-10-06 19:44:25,15.08832997,0.0001841,53.219,109.9846,44.1073,316.0066,2.8409e-05,1.64e-06,0.0,0 STARLINK-3846,1 52647U 22052BB  22279.82251590  .00000164  00000-0  28409-4 0  9997,2 52647  53.2190 109.9846 0001841  44.1073 316.0066 15.08832997 22824,6917.901999999999,95.438,541.04,538.493,0.0
52647.0,STARLINK-3846,PAYLOAD,2022-10-07 05:16:43,15.08840361,0.0001831999999999,53.2192,108.2007,44.0505,316.0633,6.9331e-05,8.15e-06,0.0,0 STARLINK-3846,1 52647U 22052BB  22280.21995080  .00000815  00000-0  69331-4 0  9993,2 52647  53.2192 108.2007 0001832  44.0505 316.0633 15.08840361 22516,6917.879,95.438,541.012,538.477,0.0
52647.0,STARLINK-3846,PAYLOAD,2022-10-07 19:35:12,15.08835158,0.0001841,53.2192,105.5247,45.4663,314.6479,1.9111e-05,1.6e-07,0.0,0 STARLINK-3846,1 52647U 22052BB  22280.81611674  .00000016  00000-0  19111-4 0  9997,2 52647  53.2192 105.5247 0001841  45.4663 314.6479 15.08835158 22972,6917.895,95.438,541.034,538.487,0.0
52647.0,STARLINK-3846,PAYLOAD,2022-10-08 05:07:32,15.08826417,0.0002024,53.2201,103.7402,46.7834,313.3327,-6.6083e-05,-1.339e-05,0.0,0 STARLINK-3846,1 52647U 22052BB  22281.21356690 -.00001339  00000-0 -66083-4 0  9997,2 52647  53.2201 103.7402 0002024  46.7834 313.3327 15.08826417 22666,6917.922,95.438,541.187,538.387,0.0
52647.0,STARLINK-3846,PAYLOAD,2022-10-08 22:36:45,15.08833194,0.0002545,53.2224,100.4649,39.6243,320.4935,8.0279e-05,9.89e-06,0.0,0 STARLINK-3846,1 52647U 22052BB  22281.94219644  .00000989  00000-0  80279-4 0  9995,2 52647  53.2224 100.4649 0002545  39.6243 320.4935 15.08833194 23149,6917.901,95.438,541.5269999999998,538.006,0.0
52647.0,STARLINK-3846,PAYLOAD,2022-10-09 19:16:46,15.08836248,0.0001964,53.2206,96.6048,42.6971,317.4173,5.7266e-05,6.23e-06,0.0,0 STARLINK-3846,1 52647U 22052BB  22282.80331972  .00000623  00000-0  57266-4 0  9995,2 52647  53.2206  96.6048 0001964  42.6971 317.4173 15.08836248 22900,6917.892,95.438,541.116,538.398,0.0
52647.0,STARLINK-3846,PAYLOAD,2022-10-09 22:27:32,15.08841664,0.0001943999999999,53.2203,96.0087,41.867,318.247,0.00010011,1.306e-05,0.0,0 STARLINK-3846,1 52647U 22052BB  22282.93579450  .00001306  00000-0  10011-3 0  9999,2 52647  53.2203  96.0087 0001944  41.8670 318.2470 15.08841664 23299,6917.875,95.437,541.085,538.395,0.0
52647.0,STARLINK-3846,PAYLOAD,2022-10-10 06:24:28,15.08839904,0.0001879,53.2198,94.5239,43.0397,317.0742,6.8192e-05,7.97e-06,0.0,0 STARLINK-3846,1 52647U 22052BB  22283.26699661  .00000797  00000-0  68192-4 0  9990,2 52647  53.2198  94.5239 0001879  43.0397 317.0742 15.08839904 22978,6917.880999999999,95.438,541.0459999999998,538.446,0.0
52647.0,STARLINK-3846,PAYLOAD,2022-10-10 17:32:10,15.08841519,0.0001861,53.2194,92.4409,42.6247,317.4889,7.3435e-05,8.81e-06,0.0,0 STARLINK-3846,1 52647U 22052BB  22283.73067470  .00000881  00000-0  73435-4 0  9999,2 52647  53.2194  92.4409 0001861  42.6247 317.4889 15.08841519 23040,6917.876,95.437,541.028,538.453,0.0
52647.0,STARLINK-3846,PAYLOAD,2022-10-11 11:01:25,15.08830811,0.0001696999999999,53.2189,89.1696,47.137,312.9765,-3.2305e-05,-8.02e-06,0.0,0 STARLINK-3846,1 52647U 22052BB  22284.45932492 -.00000802  00000-0 -32305-4 0  9990,2 52647  53.2189  89.1696 0001697  47.1370 312.9765 15.08830811 23528,6917.908,95.438,540.947,538.6,0.0
52647.0,STARLINK-3846,PAYLOAD,2022-10-11 14:12:12,15.08833861,0.0001631999999999,53.219,88.5746,47.5576,312.5554,-0.00011024,-2.042e-05,0.0,0 STARLINK-3846,1 52647U 22052BB  22284.59180716 -.00002042  00000-0 -11024-3 0  9991,2 52647  53.2190  88.5746 0001632  47.5576 312.5554 15.08833861 23171,6917.899,95.438,540.893,538.635,0.0
52647.0,STARLINK-3846,PAYLOAD,2022-10-12 10:52:12,15.08843016,0.0001638,53.2193,84.7087,47.2313,312.8816,3.5728e-06,-2.31e-06,0.0,0 STARLINK-3846,1 52647U 22052BB  22285.45291817 -.00000231  00000-0  35728-5 0  9998,2 52647  53.2193  84.7087 0001638  47.2313 312.8816 15.08843016 23674,6917.871,95.437,540.869,538.6030000000002,0.0
52647.0,STARLINK-3846,PAYLOAD,2022-10-12 14:02:58,15.08834812,0.0001757,53.2192,84.1144,46.9455,313.1684,0.00017478,2.494e-05,0.0,0 STARLINK-3846,1 52647U 22052BB  22285.58539786  .00002494  00000-0  17478-3 0  9994,2 52647  53.2192  84.1144 0001757  46.9455 313.1684 15.08834812 23329,6917.896,95.438,540.977,538.5459999999998,0.0
52647.0,STARLINK-3846,PAYLOAD,2022-10-13 10:43:00,15.08828048,0.0002193,53.2191,80.2504,43.4046,316.7119,3.3586999999999995e-05,2.46e-06,0.0,0 STARLINK-3846,1 52647U 22052BB  22286.44652931  .00000246  00000-0  33587-4 0  9991,2 52647  53.2191  80.2504 0002193  43.4046 316.7119 15.08828048 23458,6917.917,95.438,541.299,538.265,0.0
52647.0,STARLINK-3846,PAYLOAD,2022-10-13 13:53:46,15.08823296,0.0001949,53.2188,79.6551,45.2336,314.8815,-7.861e-06,-4.13e-06,0.0,0 STARLINK-3846,1 52647U 22052BB  22286.57901399 -.00000413  00000-0 -78610-5 0  9995,2 52647  53.2188  79.6551 0001949  45.2336 314.8815 15.08823296 23472,6917.931,95.439,541.145,538.448,0.0
52647.0,STARLINK-3846,PAYLOAD,2022-10-14 05:47:37,15.08843259,0.0001906999999999,53.2204,76.6812,42.9575,317.1566,-3.1575e-05,-7.91e-06,0.0,0 STARLINK-3846,1 52647U 22052BB  22287.24140549 -.00000791  00000-0 -31575-4 0  9999,2 52647  53.2204  76.6812 0001907  42.9575 317.1566 15.08843259 23943,6917.87,95.437,541.055,538.4159999999998,0.0
52647.0,STARLINK-3846,PAYLOAD,2022-10-14 12:09:10,15.08835126,0.0002015,53.2207,75.493,32.0463,328.0651,-3.7911e-05,-8.91e-06,0.0,0 STARLINK-3846,1 52647U 22052BB  22287.50637071 -.00000891  00000-0 -37911-4 0  9990,2 52647  53.2207  75.4930 0002015  32.0463 328.0651 15.08835126 23615,6917.895,95.438,541.154,538.366,0.0
52647.0,STARLINK-3846,PAYLOAD,2022-10-14 16:55:19,15.08835256,0.0001986999999999,53.2208,74.6009,31.8782,328.233,-2.9401e-05,-7.56e-06,0.0,0 STARLINK-3846,1 52647U 22052BB  22287.70509073 -.00000756  00000-0 -29401-4 0  9997,2 52647  53.2208  74.6009 0001987  31.8782 328.2330 15.08835256 23645,6917.895,95.438,541.134,538.385,0.0
52647.0,STARLINK-3846,PAYLOAD,2022-10-15 11:59:56,15.08843274,0.0002065999999999,53.2206,71.0324,29.0957,331.015,4.5449e-05,4.35e-06,0.0,0 STARLINK-3846,1 52647U 22052BB  22288.49996391  .00000435  00000-0  45449-4 0  9999,2 52647  53.2206  71.0324 0002066  29.0957 331.0150 15.08843274 23760,6917.87,95.437,541.165,538.306,0.0
52647.0,STARLINK-3846,PAYLOAD,2022-10-15 15:10:42,15.0885647,0.0002058,53.2201,70.4375,29.9841,330.1268,-0.00010939,-2.03e-05,0.0,0 STARLINK-3846,1 52647U 22052BB  22288.63244138 -.00002030  00000-0 -10939-3 0  9990,2 52647  53.2201  70.4375 0002058  29.9841 330.1268 15.08856470 24152,6917.83,95.437,541.119,538.271,0.0
52647.0,STARLINK-3846,PAYLOAD,2022-10-16 03:53:48,15.08833972,0.0002070999999999,53.2211,68.0599,40.005,320.1095,2.4727e-06,-2.49e-06,0.0,0 STARLINK-3846,1 52647U 22052BB  22289.16237194 -.00000249  00000-0  24727-5 0  9994,2 52647  53.2211  68.0599 0002071  40.0050 320.1095 15.08833972 24233,6917.899,95.438,541.197,538.331,0.0
